start=new Date('2023-02-10T00:00:00.000Z').valueOf();
sats=[{"PERIOD":"95.592","INCLINATION":"53.0551","SITE":"AFETR","CLASSIFICATION_TYPE":"U","OBJECT_NAME":"STARLINK-1074","GP_ID":"224954964","OBJECT_TYPE":"PAYLOAD","LAUNCH_DATE":"2020-01-07","ECCENTRICITY":"0.00012930","RA_OF_ASC_NODE":"311.8644","APOAPSIS":"548.119","TLE_LINE1":"1 44957U 20001AV  23040.81688977  .00002408  00000-0  18048-3 0  9993","MEAN_MOTION":"15.06396898","DECAY_DATE":null,"OBJECT_ID":"2020-001AV","MEAN_MOTION_DDOT":"0.0000000000000","REF_FRAME":"TEME","PERIAPSIS":"546.328","CENTER_NAME":"EARTH","FILE":"3783241","MEAN_ELEMENT_THEORY":"SGP4","COUNTRY_CODE":"US","SEMIMAJOR_AXIS":"6925.358","TIME_SYSTEM":"UTC","TLE_LINE2":"2 44957  53.0551 311.8644 0001293  86.7673 273.3464 15.06396898171013","MEAN_MOTION_DOT":"0.00002408","BSTAR":"0.00018048000000","RCS_SIZE":"LARGE","ELEMENT_SET_NO":"999","MEAN_ANOMALY":"273.3464","REV_AT_EPOCH":"17101","EPHEMERIS_TYPE":"0","NORAD_CAT_ID":"44957","ARG_OF_PERICENTER":"86.7673","EPOCH":"2023-02-09T19:36:19.276128"},{"APOAPSIS":"548.045","TLE_LINE1":"1 44959U 20001AX  23040.16910846  .00022776  00000-0  15426-2 0  9992","MEAN_MOTION":"15.06408864","DECAY_DATE":null,"LAUNCH_DATE":"2020-01-07","ECCENTRICITY":"0.00012400","RA_OF_ASC_NODE":"314.7876","GP_ID":"224907011","OBJECT_TYPE":"PAYLOAD","CLASSIFICATION_TYPE":"U","OBJECT_NAME":"STARLINK-1076","PERIOD":"95.592","INCLINATION":"53.0545","SITE":"AFETR","ARG_OF_PERICENTER":"97.1080","EPOCH":"2023-02-09T04:03:30.970944","RCS_SIZE":"LARGE","BSTAR":"0.00154260000000","ELEMENT_SET_NO":"999","REV_AT_EPOCH":"17091","EPHEMERIS_TYPE":"0","NORAD_CAT_ID":"44959","MEAN_ANOMALY":"263.0050","COUNTRY_CODE":"US","SEMIMAJOR_AXIS":"6925.321","FILE":"3782313","MEAN_ELEMENT_THEORY":"SGP4","TIME_SYSTEM":"UTC","TLE_LINE2":"2 44959  53.0545 314.7876 0001240  97.1080 263.0050 15.06408864170919","MEAN_MOTION_DOT":"0.00022776","OBJECT_ID":"2020-001AX","MEAN_MOTION_DDOT":"0.0000000000000","REF_FRAME":"TEME","PERIAPSIS":"546.328","CENTER_NAME":"EARTH"},{"TLE_LINE2":"2 44961  53.0532 314.7613 0000957 104.8078 255.3017 15.06413864170928","TIME_SYSTEM":"UTC","MEAN_MOTION_DOT":"0.00017035","MEAN_ELEMENT_THEORY":"SGP4","FILE":"3782313","COUNTRY_CODE":"US","SEMIMAJOR_AXIS":"6925.306","PERIAPSIS":"546.508","CENTER_NAME":"EARTH","OBJECT_ID":"2020-001AZ","REF_FRAME":"TEME","MEAN_MOTION_DDOT":"0.0000000000000","EPOCH":"2023-02-09T04:14:07.376064","ARG_OF_PERICENTER":"104.8078","MEAN_ANOMALY":"255.3017","REV_AT_EPOCH":"17092","EPHEMERIS_TYPE":"0","NORAD_CAT_ID":"44961","ELEMENT_SET_NO":"999","RCS_SIZE":"LARGE","BSTAR":"0.00115930000000","GP_ID":"224907261","OBJECT_TYPE":"PAYLOAD","PERIOD":"95.591","INCLINATION":"53.0532","SITE":"AFETR","CLASSIFICATION_TYPE":"U","OBJECT_NAME":"STARLINK-1080","MEAN_MOTION":"15.06413864","DECAY_DATE":null,"APOAPSIS":"547.834","TLE_LINE1":"1 44961U 20001AZ  23040.17647426  .00017035  00000-0  11593-2 0  9990","RA_OF_ASC_NODE":"314.7613","ECCENTRICITY":"0.00009570","LAUNCH_DATE":"2020-01-07"},{"MEAN_ANOMALY":"172.1923","NORAD_CAT_ID":"44963","EPHEMERIS_TYPE":"0","REV_AT_EPOCH":"17227","RCS_SIZE":"LARGE","BSTAR":"0.00530770000000","ELEMENT_SET_NO":"999","EPOCH":"2023-02-09T19:38:01.635072","ARG_OF_PERICENTER":"187.8965","CENTER_NAME":"EARTH","PERIAPSIS":"443.607","REF_FRAME":"TEME","MEAN_MOTION_DDOT":"0.0000000000000","OBJECT_ID":"2020-001BB","MEAN_MOTION_DOT":"0.00214893","TLE_LINE2":"2 44963  52.9732 271.0378 0007297 187.8965 172.1923 15.39161930172275","TIME_SYSTEM":"UTC","FILE":"3783241","MEAN_ELEMENT_THEORY":"SGP4","SEMIMAJOR_AXIS":"6826.723","COUNTRY_CODE":"US","RA_OF_ASC_NODE":"271.0378","ECCENTRICITY":"0.00072970","LAUNCH_DATE":"2020-01-07","DECAY_DATE":null,"MEAN_MOTION":"15.39161930","TLE_LINE1":"1 44963U 20001BB  23040.81807448  .00214893  00000-0  53077-2 0  9999","APOAPSIS":"453.570","SITE":"AFETR","PERIOD":"93.557","INCLINATION":"52.9732","CLASSIFICATION_TYPE":"U","OBJECT_NAME":"STARLINK-1085","OBJECT_TYPE":"PAYLOAD","GP_ID":"224956205"},{"CLASSIFICATION_TYPE":"U","OBJECT_NAME":"STARLINK-1086","INCLINATION":"53.0546","PERIOD":"95.592","SITE":"AFETR","GP_ID":"224908760","OBJECT_TYPE":"PAYLOAD","LAUNCH_DATE":"2020-01-07","RA_OF_ASC_NODE":"314.9243","ECCENTRICITY":"0.00013990","APOAPSIS":"548.181","TLE_LINE1":"1 44964U 20001BC  23040.13962082  .00020365  00000-0  13821-2 0  9993","MEAN_MOTION":"15.06400495","DECAY_DATE":null,"OBJECT_ID":"2020-001BC","MEAN_MOTION_DDOT":"0.0000000000000","REF_FRAME":"TEME","PERIAPSIS":"546.243","CENTER_NAME":"EARTH","COUNTRY_CODE":"US","SEMIMAJOR_AXIS":"6925.347","FILE":"3782313","MEAN_ELEMENT_THEORY":"SGP4","TIME_SYSTEM":"UTC","TLE_LINE2":"2 44964  53.0546 314.9243 0001399  81.2077 278.9070 15.06400495170910","MEAN_MOTION_DOT":"0.00020365","RCS_SIZE":"LARGE","ELEMENT_SET_NO":"999","BSTAR":"0.00138210000000","REV_AT_EPOCH":"17091","NORAD_CAT_ID":"44964","EPHEMERIS_TYPE":"0","MEAN_ANOMALY":"278.9070","ARG_OF_PERICENTER":"81.2077","EPOCH":"2023-02-09T03:21:03.238848"},{"ARG_OF_PERICENTER":"141.0470","EPOCH":"2023-02-09T03:42:40.857120","RCS_SIZE":"LARGE","BSTAR":"0.00308440000000","ELEMENT_SET_NO":"999","REV_AT_EPOCH":"17091","EPHEMERIS_TYPE":"0","NORAD_CAT_ID":"44966","MEAN_ANOMALY":"219.0682","COUNTRY_CODE":"US","SEMIMAJOR_AXIS":"6921.859","MEAN_ELEMENT_THEORY":"SGP4","FILE":"3782313","TIME_SYSTEM":"UTC","TLE_LINE2":"2 44966  53.0523 314.7871 0002262 141.0470 219.0682 15.07539199170914","MEAN_MOTION_DOT":"0.00047418","OBJECT_ID":"2020-001BE","MEAN_MOTION_DDOT":"0.0000000000000","REF_FRAME":"TEME","PERIAPSIS":"542.159","CENTER_NAME":"EARTH","APOAPSIS":"545.290","TLE_LINE1":"1 44966U 20001BE  23040.15463955  .00047418  00000-0  30844-2 0  9994","MEAN_MOTION":"15.07539199","DECAY_DATE":null,"LAUNCH_DATE":"2020-01-07","ECCENTRICITY":"0.00022620","RA_OF_ASC_NODE":"314.7871","GP_ID":"224907511","OBJECT_TYPE":"PAYLOAD","OBJECT_NAME":"STARLINK-1088","CLASSIFICATION_TYPE":"U","PERIOD":"95.520","INCLINATION":"53.0523","SITE":"AFETR"},{"FILE":"3782313","MEAN_ELEMENT_THEORY":"SGP4","SEMIMAJOR_AXIS":"6925.320","COUNTRY_CODE":"US","MEAN_MOTION_DOT":"0.00008869","TLE_LINE2":"2 44967  53.0548 314.7185 0001078 103.3346 256.7763 15.06409429170927","TIME_SYSTEM":"UTC","MEAN_MOTION_DDOT":"0.0000000000000","REF_FRAME":"TEME","OBJECT_ID":"2020-001BF","CENTER_NAME":"EARTH","PERIAPSIS":"546.438","ARG_OF_PERICENTER":"103.3346","EPOCH":"2023-02-09T04:24:44.394624","BSTAR":"0.00061337000000","RCS_SIZE":"LARGE","ELEMENT_SET_NO":"999","MEAN_ANOMALY":"256.7763","NORAD_CAT_ID":"44967","EPHEMERIS_TYPE":"0","REV_AT_EPOCH":"17092","OBJECT_TYPE":"PAYLOAD","GP_ID":"224907761","SITE":"AFETR","PERIOD":"95.592","INCLINATION":"53.0548","CLASSIFICATION_TYPE":"U","OBJECT_NAME":"STARLINK-1089","TLE_LINE1":"1 44967U 20001BF  23040.18384716  .00008869  00000-0  61337-3 0  9994","APOAPSIS":"547.931","DECAY_DATE":null,"MEAN_MOTION":"15.06409429","LAUNCH_DATE":"2020-01-07","RA_OF_ASC_NODE":"314.7185","ECCENTRICITY":"0.00010780"},{"ARG_OF_PERICENTER":"96.6896","EPOCH":"2023-02-09T04:19:25.972608","RCS_SIZE":"LARGE","ELEMENT_SET_NO":"999","BSTAR":"0.00239010000000","EPHEMERIS_TYPE":"0","NORAD_CAT_ID":"44968","REV_AT_EPOCH":"17092","MEAN_ANOMALY":"263.4186","SEMIMAJOR_AXIS":"6925.293","COUNTRY_CODE":"US","MEAN_ELEMENT_THEORY":"SGP4","FILE":"3782313","MEAN_MOTION_DOT":"0.00035516","TLE_LINE2":"2 44968  53.0542 314.7417 0000814  96.6896 263.4186 15.06418259170926","TIME_SYSTEM":"UTC","REF_FRAME":"TEME","MEAN_MOTION_DDOT":"0.0000000000000","OBJECT_ID":"2020-001BG","CENTER_NAME":"EARTH","PERIAPSIS":"546.594","TLE_LINE1":"1 44968U 20001BG  23040.18016172  .00035516  00000-0  23901-2 0  9996","APOAPSIS":"547.721","DECAY_DATE":null,"MEAN_MOTION":"15.06418259","LAUNCH_DATE":"2020-01-07","RA_OF_ASC_NODE":"314.7417","ECCENTRICITY":"0.00008140","OBJECT_TYPE":"PAYLOAD","GP_ID":"224908512","OBJECT_NAME":"STARLINK-1090","CLASSIFICATION_TYPE":"U","SITE":"AFETR","INCLINATION":"53.0542","PERIOD":"95.591"},{"LAUNCH_DATE":"2020-01-07","ECCENTRICITY":"0.00011480","RA_OF_ASC_NODE":"314.7772","APOAPSIS":"547.847","TLE_LINE1":"1 44969U 20001BH  23040.17279798  .00033869  00000-0  22785-2 0  9999","MEAN_MOTION":"15.06452872","DECAY_DATE":null,"PERIOD":"95.589","INCLINATION":"53.0535","SITE":"AFETR","OBJECT_NAME":"STARLINK-1092","CLASSIFICATION_TYPE":"U","GP_ID":"224908263","OBJECT_TYPE":"PAYLOAD","RCS_SIZE":"LARGE","BSTAR":"0.00227850000000","ELEMENT_SET_NO":"999","MEAN_ANOMALY":"258.9188","REV_AT_EPOCH":"17091","EPHEMERIS_TYPE":"0","NORAD_CAT_ID":"44969","ARG_OF_PERICENTER":"101.1930","EPOCH":"2023-02-09T04:08:49.745472","OBJECT_ID":"2020-001BH","REF_FRAME":"TEME","MEAN_MOTION_DDOT":"0.0000000000000","PERIAPSIS":"546.257","CENTER_NAME":"EARTH","MEAN_ELEMENT_THEORY":"SGP4","FILE":"3782313","COUNTRY_CODE":"US","SEMIMAJOR_AXIS":"6925.187","TLE_LINE2":"2 44969  53.0535 314.7772 0001148 101.1930 258.9188 15.06452872170914","TIME_SYSTEM":"UTC","MEAN_MOTION_DOT":"0.00033869"},{"PERIAPSIS":"546.288","CENTER_NAME":"EARTH","OBJECT_ID":"2020-001BJ","REF_FRAME":"TEME","MEAN_MOTION_DDOT":"0.0000000000000","TLE_LINE2":"2 44970  53.0537 314.8718 0001281  90.0516 270.0620 15.06412598170909","TIME_SYSTEM":"UTC","MEAN_MOTION_DOT":"0.00040593","FILE":"3782313","MEAN_ELEMENT_THEORY":"SGP4","COUNTRY_CODE":"US","SEMIMAJOR_AXIS":"6925.310","MEAN_ANOMALY":"270.0620","REV_AT_EPOCH":"17090","EPHEMERIS_TYPE":"0","NORAD_CAT_ID":"44970","BSTAR":"0.00272750000000","RCS_SIZE":"LARGE","ELEMENT_SET_NO":"999","EPOCH":"2023-02-09T03:36:58.562784","ARG_OF_PERICENTER":"90.0516","PERIOD":"95.591","INCLINATION":"53.0537","SITE":"AFETR","CLASSIFICATION_TYPE":"U","OBJECT_NAME":"STARLINK-1093","GP_ID":"224907012","OBJECT_TYPE":"PAYLOAD","RA_OF_ASC_NODE":"314.8718","ECCENTRICITY":"0.00012810","LAUNCH_DATE":"2020-01-07","MEAN_MOTION":"15.06412598","DECAY_DATE":null,"APOAPSIS":"548.062","TLE_LINE1":"1 44970U 20001BJ  23040.15067781  .00040593  00000-0  27275-2 0  9997"}];
